NORAD_CAT_ID,OBJECT_NAME,OBJECT_TYPE,EPOCH,MEAN_MOTION,ECCENTRICITY,INCLINATION,RA_OF_ASC_NODE,ARG_OF_PERICENTER,MEAN_ANOMALY,BSTAR,MEAN_MOTION_DOT,MEAN_MOTION_DDOT,TLE_LINE0,TLE_LINE1,TLE_LINE2,SEMIMAJOR_AXIS,PERIOD,APOGEE,PERIGEE,DECAYED
52533.0,STARLINK-3951,PAYLOAD,2023-11-05 03:56:42,15.0884156,0.0001647,53.2191,9.8696,80.5927,279.5251,0.00026546,3.939e-05,0.0,0 STARLINK-3951,1 52533U 22051A   23309.16438099  .00003939  00000-0  26546-3 0  9995,2 52533  53.2191   9.8696 0001647  80.5927 279.5251 15.08841560 82355,6917.876,95.437,540.88,538.601,0.0
52533.0,STARLINK-3951,PAYLOAD,2023-11-05 11:53:36,15.08874915,0.0001916,53.219,8.3815,74.4897,285.6306,0.00062087,9.616e-05,0.0,0 STARLINK-3951,1 52533U 22051A   23309.49556584  .00009616  00000-0  62087-3 0  9999,2 52533  53.2190   8.3815 0001916  74.4897 285.6306 15.08874915 82403,6917.774,95.435,540.964,538.313,0.0
52533.0,STARLINK-3951,PAYLOAD,2023-11-05 21:25:56,15.08850067,0.0001849,53.2198,6.5989,85.5734,274.5469,0.00017125,2.439e-05,0.0,0 STARLINK-3951,1 52533U 22051A   23309.89301682  .00002439  00000-0  17125-3 0  9999,2 52533  53.2198   6.5989 0001849  85.5734 274.5469 15.08850067 82398,6917.85,95.437,540.994,538.436,0.0
52533.0,STARLINK-3951,PAYLOAD,2023-11-06 10:09:01,15.08848074,0.0001631,53.2188,4.2188,101.1813,258.9362,4.5474e-05,4.36e-06,0.0,0 STARLINK-3951,1 52533U 22051A   23310.42293473  .00000436  00000-0  45474-4 0  9992,2 52533  53.2188   4.2188 0001631 101.1813 258.9362 15.08848074 82477,6917.856,95.437,540.849,538.592,0.0
52533.0,STARLINK-3951,PAYLOAD,2023-11-06 21:16:44,15.08825505,0.0002059,53.2185,2.1376,89.1862,270.9366,-0.00029518,-4.981e-05,0.0,0 STARLINK-3951,1 52533U 22051A   23310.88662751 -.00004981  00000-0 -29518-3 0  9992,2 52533  53.2185   2.1376 0002059  89.1862 270.9366 15.08825505 82544,6917.925,95.438,541.214,538.365,0.0
52533.0,STARLINK-3951,PAYLOAD,2023-11-07 09:59:50,15.08814311,0.0001635,53.2185,359.7611,83.5688,276.549,-0.00030891,-5.197e-05,0.0,0 STARLINK-3951,1 52533U 22051A   23311.41655976 -.00005197  00000-0 -30891-3 0  9999,2 52533  53.2185 359.7611 0001635  83.5688 276.5490 15.08814311 82699,6917.959,95.439,540.955,538.693,0.0
52533.0,STARLINK-3951,PAYLOAD,2023-11-08 03:29:05,15.08825513,0.0001664,53.2178,356.489,93.9276,266.1907,0.00024332,3.585e-05,0.0,0 STARLINK-3951,1 52533U 22051A   23312.14520510  .00003585  00000-0  24332-3 0  9995,2 52533  53.2178 356.4890 0001664  93.9276 266.1907 15.08825513 82801,6917.925,95.438,540.941,538.639,0.0
52533.0,STARLINK-3951,PAYLOAD,2023-11-08 09:50:37,15.08850222,0.0001735,53.2185,355.2995,101.4149,258.7038,0.00053953,8.311e-05,0.0,0 STARLINK-3951,1 52533U 22051A   23312.41015821  .00008311  00000-0  53953-3 0  9992,2 52533  53.2185 355.2995 0001735 101.4149 258.7038 15.08850222 82846,6917.849,95.437,540.914,538.514,0.0
52533.0,STARLINK-3951,PAYLOAD,2023-11-09 03:19:52,15.08840224,0.0001731,53.2188,352.0293,90.4638,269.6553,0.00060028,9.278e-05,0.0,0 STARLINK-3951,1 52533U 22051A   23313.13879959  .00009278  00000-0  60028-3 0  9996,2 52533  53.2188 352.0293 0001731  90.4638 269.6553 15.08840224 82957,6917.88,95.438,540.942,538.547,0.0
52533.0,STARLINK-3951,PAYLOAD,2023-11-09 09:41:24,15.08855688,0.0001545,53.2179,350.8382,92.2385,267.8784,0.00053483,8.238e-05,0.0,0 STARLINK-3951,1 52533U 22051A   23313.40375233  .00008238  00000-0  53483-3 0  9994,2 52533  53.2179 350.8382 0001545  92.2385 267.8784 15.08855688 82994,6917.832,95.437,540.766,538.629,0.0
52533.0,STARLINK-3951,PAYLOAD,2023-11-10 09:32:11,15.08845957,0.0001516,53.218,346.3798,102.1174,257.9988,-0.00012393,-2.26e-05,0.0,0 STARLINK-3951,1 52533U 22051A   23314.39735018 -.00002260  00000-0 -12393-3 0  9990,2 52533  53.2180 346.3798 0001516 102.1174 257.9988 15.08845957 83144,6917.862,95.437,540.776,538.678,0.0
52533.0,STARLINK-3951,PAYLOAD,2023-11-10 12:42:57,15.08845701,0.0001507,53.218,345.7851,102.4478,257.6683,-0.00011483,-2.115e-05,0.0,0 STARLINK-3951,1 52533U 22051A   23314.52982977 -.00002115  00000-0 -11483-3 0  9991,2 52533  53.2180 345.7851 0001507 102.4478 257.6683 15.08845701 83097,6917.863,95.437,540.77,538.685,0.0
52533.0,STARLINK-3951,PAYLOAD,2023-11-10 19:04:29,15.08841415,0.0001294,53.2171,344.593,95.0443,265.0697,-9.0426e-05,-1.727e-05,0.0,0 STARLINK-3951,1 52533U 22051A   23314.79479162 -.00001727  00000-0 -90426-4 0  9990,2 52533  53.2171 344.5930 0001294  95.0443 265.0697 15.08841415 83135,6917.876,95.437,540.636,538.846,0.0
52533.0,STARLINK-3951,PAYLOAD,2023-11-11 10:58:20,15.08852016,0.0001338,53.2178,341.6223,90.6722,269.4423,9.0149e-05,1.148e-05,0.0,0 STARLINK-3951,1 52533U 22051A   23315.45718529  .00001148  00000-0  90149-4 0  9994,2 52533  53.2178 341.6223 0001338  90.6722 269.4423 15.08852016 83308,6917.844,95.437,540.634,538.783,0.0
52533.0,STARLINK-3951,PAYLOAD,2023-11-12 10:49:08,15.08842258,0.0001341,53.218,337.1609,88.9185,271.1961,0.00014771,2.064e-05,0.0,0 STARLINK-3951,1 52533U 22051A   23316.45079265  .00002064  00000-0  14771-3 0  9996,2 52533  53.2180 337.1609 0001341  88.9185 271.1961 15.08842258 83456,6917.873,95.437,540.666,538.811,0.0
52533.0,STARLINK-3951,PAYLOAD,2023-11-12 18:46:04,15.08843276,0.0001355,53.2181,335.6739,89.4131,270.7016,0.00015756,2.221e-05,0.0,0 STARLINK-3951,1 52533U 22051A   23316.78199235  .00002221  00000-0  15756-3 0  9991,2 52533  53.2181 335.6739 0001355  89.4131 270.7016 15.08843276 83431,6917.87,95.437,540.673,538.798,0.0
52533.0,STARLINK-3951,PAYLOAD,2023-11-13 10:39:54,15.08857327,0.0001353,53.2164,332.6996,92.3494,267.7653,0.00025014,3.697e-05,0.0,0 STARLINK-3951,1 52533U 22051A   23317.44438311  .00003697  00000-0  25014-3 0  9992,2 52533  53.2164 332.6996 0001353  92.3494 267.7653 15.08857327 83601,6917.827,95.436,540.628,538.756,0.0
52533.0,STARLINK-3951,PAYLOAD,2023-11-13 18:36:50,15.08845291,0.0001623,53.2177,331.2119,96.5743,263.5434,0.00011503,1.543e-05,0.0,0 STARLINK-3951,1 52533U 22051A   23317.77558684  .00001543  00000-0  11503-3 0  9990,2 52533  53.2177 331.2119 0001623  96.5743 263.5434 15.08845291 83653,6917.864,95.437,540.852,538.606,0.0
52533.0,STARLINK-3951,PAYLOAD,2023-11-14 07:19:55,15.08845669,0.0001597,53.217,328.8324,98.7028,261.4145,9.565e-05,1.235e-05,0.0,0 STARLINK-3951,1 52533U 22051A   23318.30550695  .00001235  00000-0  95650-4 0  9998,2 52533  53.2170 328.8324 0001597  98.7028 261.4145 15.08845669 83662,6917.863,95.437,540.833,538.623,0.0
52533.0,STARLINK-3951,PAYLOAD,2023-11-14 18:27:38,15.08839194,0.0001582,53.2169,326.75,101.4804,258.6365,1.5713e-05,-3.8e-07,0.0,0 STARLINK-3951,1 52533U 22051A   23318.76919049 -.00000038  00000-0  15713-4 0  9993,2 52533  53.2169 326.7500 0001582 101.4804 258.6365 15.08839194 83805,6917.883,95.438,540.842,538.653,0.0
52533.0,STARLINK-3951,PAYLOAD,2023-11-15 10:21:29,15.08841499,0.0001642,53.2169,323.7765,104.5509,255.5665,-3.3688e-05,-8.24e-06,0.0,0 STARLINK-3951,1 52533U 22051A   23319.43158966 -.00000824  00000-0 -33688-4 0  9996,2 52533  53.2169 323.7765 0001642 104.5509 255.5665 15.08841499 83831,6917.876,95.437,540.877,538.605,0.0
52533.0,STARLINK-3951,PAYLOAD,2023-11-16 00:39:57,15.08838567,0.0001707,53.2164,321.1005,105.3067,254.8114,7.3721e-05,8.85e-06,0.0,0 STARLINK-3951,1 52533U 22051A   23320.02775261  .00000885  00000-0  73721-4 0  9993,2 52533  53.2164 321.1005 0001707 105.3067 254.8114 15.08838567 83995,6917.885,95.438,540.931,538.569,0.0
52533.0,STARLINK-3951,PAYLOAD,2023-11-16 05:26:06,15.08856483,0.0002116,53.2175,320.2075,103.041,257.0818,-9.3427e-05,-1.776e-05,0.0,0 STARLINK-3951,1 52533U 22051A   23320.22646321 -.00001776  00000-0 -93427-4 0  9996,2 52533  53.2175 320.2075 0002116 103.0410 257.0818 15.08856483 84024,6917.83,95.437,541.159,538.231,0.0
52533.0,STARLINK-3951,PAYLOAD,2023-11-16 16:33:49,15.08841658,0.0001504,53.2166,318.1284,95.161,264.9554,9.5696e-05,1.235e-05,0.0,0 STARLINK-3951,1 52533U 22051A   23320.69015131  .00001235  00000-0  95696-4 0  9994,2 52533  53.2166 318.1284 0001504  95.1610 264.9554 15.08841658 84094,6917.875,95.437,540.781,538.7,0.0
52533.0,STARLINK-3951,PAYLOAD,2023-11-17 00:30:45,15.0883403,0.0002008,53.2181,316.64,96.3767,263.7454,5.3448e-05,5.62e-06,0.0,0 STARLINK-3951,1 52533U 22051A   23321.02135738  .00000562  00000-0  53448-4 0  9999,2 52533  53.2181 316.6400 0002008  96.3767 263.7454 15.08834030 84148,6917.899,95.438,541.153,538.375,0.0
52533.0,STARLINK-3951,PAYLOAD,2023-11-17 06:52:18,15.08832413,0.0001858,53.2196,315.4543,94.0211,266.0994,8.4288e-05,1.053e-05,0.0,0 STARLINK-3951,1 52533U 22051A   23321.28632209  .00001053  00000-0  84288-4 0  9994,2 52533  53.2196 315.4543 0001858  94.0211 266.0994 15.08832413 84115,6917.904,95.438,541.054,538.483,0.0
52533.0,STARLINK-3951,PAYLOAD,2023-11-17 16:24:37,15.08834971,0.0001857,53.2195,313.6706,87.5025,272.618,-6.7694e-06,-3.96e-06,0.0,0 STARLINK-3951,1 52533U 22051A   23321.68376362 -.00000396  00000-0 -67694-5 0  9997,2 52533  53.2195 313.6706 0001857  87.5025 272.6180 15.08834971 84171,6917.896,95.438,541.045,538.476,0.0
52533.0,STARLINK-3951,PAYLOAD,2023-11-18 03:32:18,15.08843706,0.000177,53.2188,311.5887,100.1319,259.9873,8.5464e-05,1.072e-05,0.0,0 STARLINK-3951,1 52533U 22051A   23322.14743647  .00001072  00000-0  85464-4 0  9997,2 52533  53.2188 311.5887 0001770 100.1319 259.9873 15.08843706 84311,6917.869,95.437,540.959,538.51,0.0
52533.0,STARLINK-3951,PAYLOAD,2023-11-18 06:43:04,15.08845035,0.0001605,53.2179,310.9928,94.0851,266.0325,9.3302e-05,1.197e-05,0.0,0 STARLINK-3951,1 52533U 22051A   23322.27991592  .00001197  00000-0  93302-4 0  9993,2 52533  53.2179 310.9928 0001605  94.0851 266.0325 15.08845035 84261,6917.865,95.437,540.84,538.62,0.0
52533.0,STARLINK-3951,PAYLOAD,2023-11-18 16:15:23,15.08845004,0.0001573,53.2176,309.2087,92.5091,267.6081,7.1796e-05,8.55e-06,0.0,0 STARLINK-3951,1 52533U 22051A   23322.67735605  .00000855  00000-0  71796-4 0  9991,2 52533  53.2176 309.2087 0001573  92.5091 267.6081 15.08845004 84327,6917.865,95.437,540.818,538.642,0.0
